{"type": "FeatureCollection", "features": [ {"type": "Feature", "properties": {"norad_id": 34681, "name": "COSMOS 2251 DEB", "group": "cosmos-2251-debris", "lat": 73.44715858194606, "lon": 54.135290218298195, "alt_km": 612.3579682318796, "timestamp": "2025-12-03T17:47:51.113210+00:00", "meta": {"OBJECT_NAME": "COSMOS 2251 DEB", "OBJECT_ID": "1993-036YB", "EPOCH": "2025-12-03T08:20:25.475712", "MEAN_MOTION": 14.82827794, "ECCENTRICITY": 0.0025713, "INCLINATION": 74.0622, "RA_OF_ASC_NODE": 308.9556, "ARG_OF_PERICENTER": 7.2115, "MEAN_ANOMALY": 144.3612, "EPHEMERIS_TYPE": 0, "CLASSIFICATION_TYPE": "U", "NORAD_CAT_ID": 34681, "ELEMENT_SET_NO": 999, "REV_AT_EPOCH": 89131, "BSTAR": 0.0020201, "MEAN_MOTION_DOT": 0.00016451, "MEAN_MOTION_DDOT": 0}, "tle": {"line1": "1 34681U 93036YB  25337.34751708  .00016451  00000+0  20201-2 0  9991", "line2": "2 34681  74.0622 308.9556 0025713   7.2115 144.3612 14.82827794891310"}}, "geometry": {"type": "Point", "coordinates": [54.135290218298195, 73.44715858194606]}}, {"type": "Feature", "properties": {"norad_id": 34682, "name": "COSMOS 2251 DEB", "group": "cosmos-2251-debris", "lat": -73.96744494328242, "lon": 15.269888005863038, "alt_km": 693.6417196894217, "timestamp": "2025-12-03T17:47:51.113220+00:00", "meta": {"OBJECT_NAME": "COSMOS 2251 DEB", "OBJECT_ID": "1993-036YC", "EPOCH": "2025-12-03T08:28:16.036032", "MEAN_MOTION": 14.58771685, "ECCENTRICITY": 0.0018745, "INCLINATION": 74.0388, "RA_OF_ASC_NODE": 100.8621, "ARG_OF_PERICENTER": 234.1512, "MEAN_ANOMALY": 157.2088, "EPHEMERIS_TYPE": 0, "CLASSIFICATION_TYPE": "U", "NORAD_CAT_ID": 34682, "ELEMENT_SET_NO": 999, "REV_AT_EPOCH": 88549, "BSTAR": 0.0013546, "MEAN_MOTION_DOT": 6.321e-05, "MEAN_MOTION_DDOT": 0}, "tle": {"line1": "1 34682U 93036YC  25337.35296338  .00006321  00000+0  13546-2 0  9995", "line2": "2 34682  74.0388 100.8621 0018745 234.1512 157.2088 14.58771685885493"}}, "geometry": {"type": "Point", "coordinates": [15.269888005863038, -73.96744494328242]}}, {"type": "Feature", "properties": {"norad_id": 34683, "name": "COSMOS 2251 DEB", "group": "cosmos-2251-debris", "lat": -60.22284248111303, "lon": -40.39846084768598, "alt_km": 673.7106228088096, "timestamp": "2025-12-03T17:47:51.113231+00:00", "meta": {"OBJECT_NAME": "COSMOS 2251 DEB", "OBJECT_ID": "1993-036YD", "EPOCH": "2025-12-03T08:37:36.802272", "MEAN_MOTION": 14.64258206, "ECCENTRICITY": 0.0018887, "INCLINATION": 74.0283, "RA_OF_ASC_NODE": 110.2995, "ARG_OF_PERICENTER": 225.1262, "MEAN_ANOMALY": 165.8783, "EPHEMERIS_TYPE": 0, "CLASSIFICATION_TYPE": "U", "NORAD_CAT_ID": 34683, "ELEMENT_SET_NO": 999, "REV_AT_EPOCH": 88211, "BSTAR": 0.0019412, "MEAN_MOTION_DOT": 0.00010244, "MEAN_MOTION_DDOT": 0}, "tle": {"line1": "1 34683U 93036YD  25337.35945373  .00010244  00000+0  19412-2 0  9993", "line2": "2 34683  74.0283 110.2995 0018887 225.1262 165.8783 14.64258206882115"}}, "geometry": {"type": "Point", "coordinates": [-40.39846084768598, -60.22284248111303]}}, {"type": "Feature", "properties": {"norad_id": 34685, "name": "COSMOS 2251 DEB", "group": "cosmos-2251-debris", "lat": -71.0939695534451, "lon": 42.62818186199655, "alt_km": 698.5510795847695, "timestamp": "2025-12-03T17:47:51.113241+00:00", "meta": {"OBJECT_NAME": "COSMOS 2251 DEB", "OBJECT_ID": "1993-036YF", "EPOCH": "2025-12-02T23:03:11.928672", "MEAN_MOTION": 14.57362176, "ECCENTRICITY": 0.00144266, "INCLINATION": 74.029, "RA_OF_ASC_NODE": 167.3734, "ARG_OF_PERICENTER": 271.3416, "MEAN_ANOMALY": 212.528, "EPHEMERIS_TYPE": 0, "CLASSIFICATION_TYPE": "U", "NORAD_CAT_ID": 34685, "ELEMENT_SET_NO": 999, "REV_AT_EPOCH": 88389, "BSTAR": 0.001243281, "MEAN_MOTION_DOT": 5.617e-05, "MEAN_MOTION_DDOT": 0}, "tle": {"line1": "1 34685U 93036YF  25336.96055473  .00005617  00000+0  12433-2 0  9998", "line2": "2 34685  74.0290 167.3734 0014426 271.3416 212.5280 14.57362176883890"}}, "geometry": {"type": "Point", "coordinates": [42.62818186199655, -71.0939695534451]}}, {"type": "Feature", "properties": {"norad_id": 34689, "name": "COSMOS 2251 DEB", "group": "cosmos-2251-debris", "lat": 21.924915873371845, "lon": -114.36476265138411, "alt_km": 826.842500109773, "timestamp": "2025-12-03T17:47:51.113252+00:00", "meta": {"OBJECT_NAME": "COSMOS 2251 DEB", "OBJECT_ID": "1993-036YK", "EPOCH": "2025-12-01T04:52:05.077056", "MEAN_MOTION": 14.04150485, "ECCENTRICITY": 0.0229843, "INCLINATION": 74.0888, "RA_OF_ASC_NODE": 243.4543, "ARG_OF_PERICENTER": 314.8144, "MEAN_ANOMALY": 197.2792, "EPHEMERIS_TYPE": 0, "CLASSIFICATION_TYPE": "U", "NORAD_CAT_ID": 34689, "ELEMENT_SET_NO": 999, "REV_AT_EPOCH": 84179, "BSTAR": 0.0056499, "MEAN_MOTION_DOT": 0.00011323, "MEAN_MOTION_DDOT": 0}, "tle": {"line1": "1 34689U 93036YK  25335.20283654  .00011323  00000+0  56499-2 0  9993", "line2": "2 34689  74.0888 243.4543 0229843 314.8144 197.2792 14.04150485841793"}}, "geometry": {"type": "Point", "coordinates": [-114.36476265138411, 21.924915873371845]}}, {"type": "Feature", "properties": {"norad_id": 34721, "name": "COSMOS 2251 DEB", "group": "cosmos-2251-debris", "lat": -60.92450856217841, "lon": -49.37732307494879, "alt_km": 752.1914773241442, "timestamp": "2025-12-03T17:47:51.113262+00:00", "meta": {"OBJECT_NAME": "COSMOS 2251 DEB", "OBJECT_ID": "1993-036YP", "EPOCH": "2025-12-02T07:48:06.027264", "MEAN_MOTION": 13.96762831, "ECCENTRICITY": 0.022397, "INCLINATION": 73.9234, "RA_OF_ASC_NODE": 344.3187, "ARG_OF_PERICENTER": 285.1168, "MEAN_ANOMALY": 89.0422, "EPHEMERIS_TYPE": 0, "CLASSIFICATION_TYPE": "U", "NORAD_CAT_ID": 34721, "ELEMENT_SET_NO": 999, "REV_AT_EPOCH": 85004, "BSTAR": 0.0021289, "MEAN_MOTION_DOT": 3.628e-05, "MEAN_MOTION_DDOT": 0}, "tle": {"line1": "1 34721U 93036YP  25336.32506976  .00003628  00000+0  21289-2 0  9997", "line2": "2 34721  73.9234 344.3187 0223970 285.1168  89.0422 13.96762831850049"}}, "geometry": {"type": "Point", "coordinates": [-49.37732307494879, -60.92450856217841]}}, {"type": "Feature", "properties": {"norad_id": 34722, "name": "COSMOS 2251 DEB", "group": "cosmos-2251-debris", "lat": 31.381609156619643, "lon": 2.2838195769142478, "alt_km": 897.7593912725815, "timestamp": "2025-12-03T17:47:51.113273+00:00", "meta": {"OBJECT_NAME": "COSMOS 2251 DEB", "OBJECT_ID": "1993-036YQ", "EPOCH": "2025-12-03T11:34:07.843008", "MEAN_MOTION": 14.11883705, "ECCENTRICITY": 0.0167495, "INCLINATION": 73.8718, "RA_OF_ASC_NODE": 352.5809, "ARG_OF_PERICENTER": 279.7285, "MEAN_ANOMALY": 232.8069, "EPHEMERIS_TYPE": 0, "CLASSIFICATION_TYPE": "U", "NORAD_CAT_ID": 34722, "ELEMENT_SET_NO": 999, "REV_AT_EPOCH": 86114, "BSTAR": 0.0011688, "MEAN_MOTION_DOT": 2.41e-05, "MEAN_MOTION_DDOT": 0}, "tle": {"line1": "1 34722U 93036YQ  25337.48203522  .00002410  00000+0  11688-2 0  9997", "line2": "2 34722  73.8718 352.5809 0167495 279.7285 232.8069 14.11883705861146"}}, "geometry": {"type": "Point", "coordinates": [2.2838195769142478, 31.381609156619643]}}, {"type": "Feature", "properties": {"norad_id": 34726, "name": "COSMOS 2251 DEB", "group": "cosmos-2251-debris", "lat": -37.33107361900477, "lon": -9.126444045393649, "alt_km": 729.9328891501091, "timestamp": "2025-12-03T17:47:51.113283+00:00", "meta": {"OBJECT_NAME": "COSMOS 2251 DEB", "OBJECT_ID": "1993-036YU", "EPOCH": "2025-12-03T11:23:49.855776", "MEAN_MOTION": 14.59424175, "ECCENTRICITY": 0.0042474, "INCLINATION": 74.0293, "RA_OF_ASC_NODE": 3.9976, "ARG_OF_PERICENTER": 157.587, "MEAN_ANOMALY": 202.7164, "EPHEMERIS_TYPE": 0, "CLASSIFICATION_TYPE": "U", "NORAD_CAT_ID": 34726, "ELEMENT_SET_NO": 999, "REV_AT_EPOCH": 88367, "BSTAR": 0.00059466, "MEAN_MOTION_DOT": 2.824e-05, "MEAN_MOTION_DDOT": 0}, "tle": {"line1": "1 34726U 93036YU  25337.47488259  .00002824  00000+0  59466-3 0  9998", "line2": "2 34726  74.0293   3.9976 0042474 157.5870 202.7164 14.59424175883673"}}, "geometry": {"type": "Point", "coordinates": [-9.126444045393649, -37.33107361900477]}}, {"type": "Feature", "properties": {"norad_id": 34728, "name": "COSMOS 2251 DEB", "group": "cosmos-2251-debris", "lat": -12.479031339418519, "lon": 92.89400997993057, "alt_km": 678.6970153110151, "timestamp": "2025-12-03T17:47:51.113294+00:00", "meta": {"OBJECT_NAME": "COSMOS 2251 DEB", "OBJECT_ID": "1993-036YW", "EPOCH": "2025-12-03T02:14:02.628672", "MEAN_MOTION": 14.70683723, "ECCENTRICITY": 0.0040693, "INCLINATION": 74.0187, "RA_OF_ASC_NODE": 270.5171, "ARG_OF_PERICENTER": 70.8224, "MEAN_ANOMALY": 289.7344, "EPHEMERIS_TYPE": 0, "CLASSIFICATION_TYPE": "U", "NORAD_CAT_ID": 34728, "ELEMENT_SET_NO": 999, "REV_AT_EPOCH": 88658, "BSTAR": 0.0010464414, "MEAN_MOTION_DOT": 6.43e-05, "MEAN_MOTION_DDOT": 0}, "tle": {"line1": "1 34728U 93036YW  25337.09308598  .00006430  00000+0  10464-2 0  9996", "line2": "2 34728  74.0187 270.5171 0040693  70.8224 289.7344 14.70683723886584"}}, "geometry": {"type": "Point", "coordinates": [92.89400997993057, -12.479031339418519]}}, {"type": "Feature", "properties": {"norad_id": 34729, "name": "COSMOS 2251 DEB", "group": "cosmos-2251-debris", "lat": -3.4943096958467383, "lon": -162.7483550725363, "alt_km": 618.6178432117113, "timestamp": "2025-12-03T17:47:51.113305+00:00", "meta": {"OBJECT_NAME": "COSMOS 2251 DEB", "OBJECT_ID": "1993-036YX", "EPOCH": "2025-12-03T10:46:25.403232", "MEAN_MOTION": 14.82363711, "ECCENTRICITY": 0.0012244, "INCLINATION": 74.019, "RA_OF_ASC_NODE": 16.8279, "ARG_OF_PERICENTER": 141.7348, "MEAN_ANOMALY": 280.5603, "EPHEMERIS_TYPE": 0, "CLASSIFICATION_TYPE": "U", "NORAD_CAT_ID": 34729, "ELEMENT_SET_NO": 999, "REV_AT_EPOCH": 88320, "BSTAR": 0.0023674, "MEAN_MOTION_DOT": 0.00018995, "MEAN_MOTION_DDOT": 0}, "tle": {"line1": "1 34729U 93036YX  25337.44890513  .00018995  00000+0  23674-2 0  9995", "line2": "2 34729  74.0190  16.8279 0012244 141.7348 280.5603 14.82363711883203"}}, "geometry": {"type": "Point", "coordinates": [-162.7483550725363, -3.4943096958467383]}}]}